BEIDOU 3 (C01)          
1 36287U 10001A   22320.41828948 -.00000268  00000+0  00000+0 0  9996
2 36287   1.7776  49.3984 0001530 251.8842  45.1668  1.00267674 47039
BEIDOU 5 (C06)          
1 36828U 10036A   22320.36524909 -.00000063  00000+0  00000+0 0  9992
2 36828  54.1969 174.8419 0030303 183.2491 294.5965  1.00254675 45104
BEIDOU 6 (C04)          
1 37210U 10057A   22320.56559824 -.00000098  00000+0  00000+0 0  9995
2 37210   0.8220  45.0881 0007211 163.9106 210.2769  1.00271883 44162
BEIDOU 7 (C07)          
1 37256U 10068A   22320.62778505 -.00000190  00000+0  00000+0 0  9996
2 37256  49.9437 287.8230 0022803 207.5215 253.0438  1.00258608 43673
BEIDOU 8 (C08)          
1 37384U 11013A   22319.75033030 -.00000187  00000+0  00000+0 0  9994
2 37384  60.5129  52.7682 0024584 182.0323 198.0397  1.00267580 42543
BEIDOU 9 (C09)          
1 37763U 11038A   22320.42805273  .00000022  00000+0  00000+0 0  9991
2 37763  54.4766 177.3416 0100584 227.6511 257.3420  1.00291310 41523
BEIDOU 10 (C10)         
1 37948U 11073A   22320.28432370 -.00000138  00000+0  00000+0 0  9992
2 37948  50.0620 287.4739 0086049 220.7423 103.7539  1.00259634 40274
BEIDOU 11 (C05)         
1 38091U 12008A   22320.54546315  .00000071  00000+0  00000+0 0  9990
2 38091   1.9069  70.5473 0008573 323.8854 276.2286  1.00273430 39353
BEIDOU 12 (C11)         
1 38250U 12018A   22320.10344304 -.00000073  00000+0  00000+0 0  9997
2 38250  56.6445 348.5501 0024862 253.6377 111.7032  1.86234334 71918
BEIDOU 13 (C12)         
1 38251U 12018B   22320.10456841 -.00000072  00000+0  00000+0 0  9997
2 38251  56.5597 347.8639 0015724 254.7730 155.4461  1.86234100 71914
BEIDOU 15 (C14)         
1 38775U 12050B   22320.35327787  .00000058  00000+0  00000+0 0  9990
2 38775  55.4932 106.5745 0010937 333.1442  79.4941  1.86231201 69292
BEIDOU 16 (C02)         
1 38953U 12059A   22320.55051870 -.00000162  00000+0  00000+0 0  9993
2 38953   1.2998  81.5806 0024084 293.7883 322.4913  1.00271798 36924
BEIDOU 17 (C31)         
1 40549U 15019A   22320.37589306 -.00000150  00000+0  00000+0 0  9993
2 40549  51.6239 310.9857 0038124 200.2154 134.3381  1.00264061 27951
BEIDOU 18 (C57)         
1 40748U 15037A   22320.28767175 -.00000071  00000+0  00000+0 0  9998
2 40748  55.8075 346.6315 0002050 323.7214 118.5147  1.86233278 49743
BEIDOU 19 (C58)         
1 40749U 15037B   22320.61493449 -.00000069  00000+0  00000+0 0  9993
2 40749  55.8113 346.6108 0005181 294.2976 141.4704  1.86232887 49741
BEIDOU 20 (C18)         
1 40938U 15053A   22320.33757475 -.00000128  00000+0  00000+0 0  9998
2 40938  51.2694 274.1253 0045006 199.8716 157.4400  1.00258735 26227
BEIDOU IGSO-6 (C13)     
1 41434U 16021A   22319.71656468 -.00000150  00000+0  00000+0 0  9991
2 41434  58.3255  51.2754 0049476 219.9736 134.1924  1.00295600 24347
BEIDOU-2 G7 (C03)       
1 41586U 16037A   22319.76669164 -.00000341  00000+0  00000+0 0  9990
2 41586   1.7121  69.1418 0007467 345.5122  26.6158  1.00265371 23663
BEIDOU-3 M1 (C19)       
1 43001U 17069A   22320.57509922  .00000060  00000+0  00000+0 0  9993
2 43001  55.6465 106.5874 0007281 289.8781  67.8793  1.86231505 34225
BEIDOU-3 M2 (C20)       
1 43002U 17069B   22319.97268369  .00000056  00000+0  00000+0 0  9998
2 43002  55.6454 106.6433 0005394 323.6087  33.0765  1.86231207 34206
BEIDOU-3 M3 (C27)       
1 43107U 18003A   22320.28057458 -.00000074  00000+0  00000+0 0  9995
2 43107  55.2606 347.4820 0003016  57.6948 311.7815  1.86232380 32989
BEIDOU-3 M4 (C28)       
1 43108U 18003B   22320.20286038 -.00000074  00000+0  00000+0 0  9996
2 43108  55.2537 347.4723 0004406 248.0187 112.3878  1.86230813 32983
BEIDOU-3 M5 (C21)       
1 43207U 18018A   22319.57234452  .00000053  00000+0  00000+0 0  9999
2 43207  55.6043 106.7300 0003664   8.6030 351.3960  1.86231452 32356
BEIDOU-3 M6 (C22)       
1 43208U 18018B   22319.10206939  .00000049  00000+0  00000+0 0  9993
2 43208  55.6039 106.7503 0005034 306.4148  53.5288  1.86231503 32349
BEIDOU-3 M7 (C29)       
1 43245U 18029A   22319.35613738 -.00000077  00000+0  00000+0 0  9994
2 43245  55.1679 345.2710 0001560 250.0780 130.1579  1.86232552 31508
BEIDOU-3 M8 (C30)       
1 43246U 18029B   22320.32072441 -.00000071  00000+0  10000-3 0  9993
2 43246  55.1649 345.2668 0003593 336.0148  17.5982  1.86232979 31508
BEIDOU IGSO-7 (C16)     
1 43539U 18057A   22320.45595433 -.00000074  00000+0  00000+0 0  9992
2 43539  55.0884 174.3862 0051282 225.9550 293.3013  1.00263911 16037
BEIDOU-3 M9 (C23)       
1 43581U 18062A   22320.28668325 -.00000013  00000+0  00000+0 0  9990
2 43581  54.2373 226.8910 0003867 298.5619 243.6368  1.86231928 29259
BEIDOU-3 M10 (C24)      
1 43582U 18062B   22319.54233116 -.00000013  00000+0  00000+0 0  9994
2 43582  54.2375 226.9050 0005979   2.7546 132.3894  1.86232443 29248
BEIDOU-3 M11 (C25)      
1 43602U 18067A   22320.03941267 -.00000012  00000+0  00000+0 0  9990
2 43602  54.3206 225.5168 0007622  11.7716 137.6423  1.86231469 28743
BEIDOU-3 M12 (C26)      
1 43603U 18067B   22320.20450594 -.00000012  00000+0  00000+0 0  9998
2 43603  54.3168 225.4776 0004667   0.9060 169.5432  1.86231413 28768
BEIDOU-3 M13 (C32)      
1 43622U 18072A   22320.44112669  .00000058  00000+0  00000+0 0  9998
2 43622  55.5729 106.2504 0004149 279.9963  77.9691  1.86231480 28274
BEIDOU-3 M14 (C33)      
1 43623U 18072B   22320.30741566  .00000057  00000+0  00000+0 0  9997
2 43623  55.5742 106.2477 0002141 333.2092  25.3510  1.86231489 28272
BEIDOU-3 M15 (C34)      
1 43647U 18078A   22320.54058966 -.00000070  00000+0  10000-3 0  9991
2 43647  55.0614 345.3758 0005715 351.9352  58.7295  1.86233030 27795
BEIDOU-3 M16 (C35)      
1 43648U 18078B   22319.59176564 -.00000076  00000+0  00000+0 0  9991
2 43648  55.0594 345.4141 0003466 356.6316  45.3734  1.86232305 27797
BEIDOU-3 G1 (C59)       
1 43683U 18085A   22320.56167581 -.00000263  00000+0  00000+0 0  9994
2 43683   1.0847 144.0018 0004593  63.1272 190.7478  1.00274479 14933
BEIDOU-3 M17 (C36)      
1 43706U 18093A   22320.21639872 -.00000013  00000+0  00000+0 0  9991
2 43706  54.3180 226.7901 0008783 286.0113  73.9445  1.86232083 27168
BEIDOU-3 M18 (C37)      
1 43707U 18093B   22320.35846225 -.00000013  00000+0  00000+0 0  9999
2 43707  54.3195 226.7753 0008212 313.3591 233.2090  1.86232290 27157
BEIDOU-3 IGSO-1 (C38)   
1 44204U 19023A   22319.65447391 -.00000218  00000+0  00000+0 0  9995
2 44204  56.7850  51.3572 0024141 192.5025 165.3446  1.00263815 13229
BEIDOU-2 G8             
1 44231U 19027A   22320.64237400 -.00000234  00000+0  00000+0 0  9996
2 44231   1.2282  79.8415 0006487 132.6865 218.9387  1.00268608 12946
BEIDOU-3 IGSO-2 (C39)   
1 44337U 19035A   22320.48575515 -.00000071  00000+0  00000+0 0  9995
2 44337  55.1269 170.3719 0025643 188.9347 349.3745  1.00257581 12578
BEIDOU-3 M23 (C45)      
1 44542U 19061A   22320.15281800 -.00000013  00000+0  00000+0 0  9993
2 44542  54.5444 226.9641 0008938 348.4162  11.6156  1.86231589 21414
BEIDOU-3 M24 (C46)      
1 44543U 19061B   22320.54003726 -.00000012  00000+0  00000+0 0  9995
2 44543  54.5441 226.9200 0006016 335.0684 196.0746  1.86231899 21416
BEIDOU-3 IGSO-3         
1 44709U 19073A   22320.53483156 -.00000169  00000+0  10000-3 0  9998
2 44709  57.0176 294.8020 0026845 183.3453 249.1534  1.00262668 11325
BEIDOU-3 M21            
1 44793U 19078A   22320.11846505 -.00000073  00000+0  10000-3 0  9995
2 44793  54.9121 345.3940 0005327   0.5894  80.7078  1.86232168 20270
BEIDOU-3 M22            
1 44794U 19078B   22320.33028698 -.00000072  00000+0  00000+0 0  9999
2 44794  54.8863 345.3752 0003501 350.0252 145.2175  1.86232664 20273
BEIDOU-3 M19            
1 44864U 19090A   22320.38775708  .00000058  00000+0  00000+0 0  9990
2 44864  55.5071 106.4549 0014989 267.6921 100.4084  1.86231748 19865
BEIDOU-3 M20            
1 44865U 19090B   22320.24061413  .00000057  00000+0  00000+0 0  9996
2 44865  55.5092 106.4920 0012892 282.7810  76.5089  1.86231710 19821
BEIDOU-3 G2             
1 45344U 20017A   22320.47799748 -.00000132  00000+0  00000+0 0  9999
2 45344   2.0016   0.0138 0002629 194.3819 113.2841  1.00271549 10131
BEIDOU-3 G3             
1 45807U 20040A   22320.55574860 -.00000341  00000+0  00000+0 0  9996
2 45807   1.1102 309.1893 0009594 340.4031  76.5429  1.00265888  8959
